0 IRIDIUM 33 DEB
1 34354U 97051EW  13281.49162454  .00007849  00000-0  23584-2 0  1793
2 34354 086.2272 099.6588 0057871 242.7139 175.2762 14.41605426242695
0 IRIDIUM 33 DEB
1 34354U 97051EW  13282.45802138  .00013845  00000-0  41583-2 0  1804
2 34354 086.2274 099.2308 0057864 239.4612 150.7649 14.41639173242838
0 IRIDIUM 33 DEB
1 34354U 97051EW  13283.22693934  .00013216  00000-0  39685-2 0  1815
2 34354 086.2275 098.8903 0057935 236.8477 181.4663 14.41647276242946
0 IRIDIUM 33 DEB
1 34354U 97051EW  13283.70148530  .00011145  00000-0  33570-2 0  1822
2 34354 086.2282 098.6792 0057946 235.6477 123.9720 14.41658699243012
0 IRIDIUM 33 DEB
1 34354U 97051EW  13285.95207788  .00011447  00000-0  34330-2 0  1833
2 34354 086.2273 097.6838 0058215 228.0604 284.8239 14.41701459243341
0 IRIDIUM 33 DEB
1 34354U 97051EW  13287.46065485  .00012639  00000-0  37880-2 0  1845
2 34354 086.2276 097.0165 0058202 222.8865 194.8223 14.41730906243553
0 IRIDIUM 33 DEB
1 34354U 97051EW  13288.50109808  .00018156  00000-0  54358-2 0  1859
2 34354 086.2268 096.5548 0058260 219.4793 195.0095 14.41764311243703
0 IRIDIUM 33 DEB
1 34354U 97051EW  13288.93259012  .00015928  00000-0  47681-2 0  1865
2 34354 086.2271 096.3634 0058310 218.0631 274.6106 14.41776931243767
0 IRIDIUM 33 DEB
1 34354U 97051EW  13290.43952294  .00017278  00000-0  51677-2 0  1876
2 34354 086.2272 095.6959 0058375 213.0050 176.3879 14.41812921243980
0 IRIDIUM 33 DEB
1 34354U 97051EW  13291.91609707  .00013577  00000-0  40577-2 0  1884
2 34354 086.2278 095.0418 0058494 208.1117 280.7356 14.41854504244198
0 IRIDIUM 33 DEB
1 34354U 97051EW  13293.49966447  .00017059  00000-0  50933-2 0  1893
2 34354 086.2272 094.3379 0058398 203.1718 220.3784 14.41898370244425
0 IRIDIUM 33 DEB
1 34354U 97051EW  13294.90460539  .00017479  00000-0  52140-2 0  1901
2 34354 086.2283 093.7169 0058511 198.5717 313.2787 14.41936266244635
